STARLINK-36109          
1 66943U 25286U   25359.83335647 -.01977575  00000+0 -29101-1 0  9990
2 66943  53.1591 345.1447 0001435  87.7364  61.2834 15.58349946  4024
STARLINK-36112          
1 66944U 25286V   25359.83335647 -.01971339  00000+0 -29000-1 0  9991
2 66944  53.1590 345.1399 0001392  90.6233  60.3119 15.58346956  4091
STARLINK-36110          
1 66945U 25286W   25359.83335647 -.01964307  00000+0 -28887-1 0  9991
2 66945  53.1590 345.1356 0001451  88.5466  64.3082 15.58341951  4098
STARLINK-36115          
1 66946U 25286X   25359.83335647 -.01965526  00000+0 -28906-1 0  9998
2 66946  53.1588 345.1317 0001381  85.5674  69.2025 15.58344143  4090
STARLINK-36089          
1 66947U 25286Y   25359.83335647 -.01963494  00000+0 -28874-1 0  9995
2 66947  53.1591 345.1229 0001428  88.2010  70.4042 15.58341934  4091
STARLINK-36116          
1 66948U 25286Z   25359.83335647 -.01965735  00000+0 -28910-1 0  9997
2 66948  53.1590 345.1273 0001381  84.9018  71.7857 15.58343725  4097
STARLINK-36096          
1 66949U 25286AA  25359.83335647 -.01983759  00000+0 -29199-1 0  9994
2 66949  53.1590 345.1201 0001527  85.7374  74.7829 15.58353706  4097
STARLINK-36111          
1 66950U 25286AB  25359.83335647 -.01967477  00000+0 -28937-1 0  9994
2 66950  53.1591 345.1111 0001407  89.6353  74.7184 15.58345414  4098
STARLINK-35999          
1 66951U 25286AC  25359.83335647 -.01964769  00000+0 -28895-1 0  9999
2 66951  53.1590 345.1073 0001363  89.6505  76.6229 15.58342404  4092
STARLINK-36122          
1 66952U 25286AD  25359.83335647 -.01970403  00000+0 -28984-1 0  9991
2 66952  53.1592 345.1154 0001475  85.7351  76.7024 15.58346363  4097
STARLINK-35887          
1 66959U 25288A   25359.83335647 -.02004716  00000+0 -24397-1 0  9990
2 66959  43.0003  87.4076 0001643 282.0697  56.9655 15.63051782  3936
STARLINK-35879          
1 66960U 25288B   25359.83335647 -.02015447  00000+0 -24539-1 0  9993
2 66960  43.0001  87.4025 0001661 279.7411  61.2079 15.63059320  3932
STARLINK-35761          
1 66961U 25288C   25359.83335647 -.02003071  00000+0 -24376-1 0  9993
2 66961  43.0001  87.3982 0001554 279.4814  63.3884 15.63050855  3930
STARLINK-35874          
1 66962U 25288D   25359.83335647 -.02013708  00000+0 -24515-1 0  9997
2 66962  43.0001  87.3927 0001667 280.0182  64.7648 15.63058674  3931
STARLINK-36133          
1 66963U 25288E   25359.83335647 -.02013385  00000+0 -24511-1 0  9995
2 66963  43.0001  87.3881 0001653 279.7550  66.9454 15.63058261  3931
STARLINK-36104          
1 66964U 25288F   25359.83335647 -.02020138  00000+0 -24601-1 0  9990
2 66964  43.0001  87.3829 0001688 282.6901  65.9263 15.63062312  3934
STARLINK-36067          
1 66965U 25288G   25359.83335647 -.02001303  00000+0 -24353-1 0  9998
2 66965  43.0000  87.3790 0001591 279.7393  70.8001 15.63049255  3932
