[{"OBJECT_NAME":"STARLINK-36109","OBJECT_ID":"2025-286U","EPOCH":"2025-12-25T20:00:01.999008","MEAN_MOTION":15.58349946,"ECCENTRICITY":0.0001435,"INCLINATION":53.1591,"RA_OF_ASC_NODE":345.1447,"ARG_OF_PERICENTER":87.7364,"MEAN_ANOMALY":61.2834,"EPHEMERIS_TYPE":0,"CLASSIFICATION_TYPE":"U","NORAD_CAT_ID":66943,"ELEMENT_SET_NO":999,"REV_AT_EPOCH":402,"BSTAR":-0.029101,"MEAN_MOTION_DOT":-0.01977575,"MEAN_MOTION_DDOT":0},{"OBJECT_NAME":"STARLINK-36112","OBJECT_ID":"2025-286V","EPOCH":"2025-12-25T20:00:01.999008","MEAN_MOTION":15.58346956,"ECCENTRICITY":0.0001392,"INCLINATION":53.159,"RA_OF_ASC_NODE":345.1399,"ARG_OF_PERICENTER":90.6233,"MEAN_ANOMALY":60.3119,"EPHEMERIS_TYPE":0,"CLASSIFICATION_TYPE":"U","NORAD_CAT_ID":66944,"ELEMENT_SET_NO":999,"REV_AT_EPOCH":409,"BSTAR":-0.029,"MEAN_MOTION_DOT":-0.01971339,"MEAN_MOTION_DDOT":0},{"OBJECT_NAME":"STARLINK-36110","OBJECT_ID":"2025-286W","EPOCH":"2025-12-25T20:00:01.999008","MEAN_MOTION":15.58341951,"ECCENTRICITY":0.0001451,"INCLINATION":53.159,"RA_OF_ASC_NODE":345.1356,"ARG_OF_PERICENTER":88.5466,"MEAN_ANOMALY":64.3082,"EPHEMERIS_TYPE":0,"CLASSIFICATION_TYPE":"U","NORAD_CAT_ID":66945,"ELEMENT_SET_NO":999,"REV_AT_EPOCH":409,"BSTAR":-0.028887,"MEAN_MOTION_DOT":-0.01964307,"MEAN_MOTION_DDOT":0},{"OBJECT_NAME":"STARLINK-36115","OBJECT_ID":"2025-286X","EPOCH":"2025-12-25T20:00:01.999008","MEAN_MOTION":15.58344143,"ECCENTRICITY":0.0001381,"INCLINATION":53.1588,"RA_OF_ASC_NODE":345.1317,"ARG_OF_PERICENTER":85.5674,"MEAN_ANOMALY":69.2025,"EPHEMERIS_TYPE":0,"CLASSIFICATION_TYPE":"U","NORAD_CAT_ID":66946,"ELEMENT_SET_NO":999,"REV_AT_EPOCH":409,"BSTAR":-0.028906,"MEAN_MOTION_DOT":-0.01965526,"MEAN_MOTION_DDOT":0},{"OBJECT_NAME":"STARLINK-36089","OBJECT_ID":"2025-286Y","EPOCH":"2025-12-25T20:00:01.999008","MEAN_MOTION":15.58341934,"ECCENTRICITY":0.0001428,"INCLINATION":53.1591,"RA_OF_ASC_NODE":345.1229,"ARG_OF_PERICENTER":88.201,"MEAN_ANOMALY":70.4042,"EPHEMERIS_TYPE":0,"CLASSIFICATION_TYPE":"U","NORAD_CAT_ID":66947,"ELEMENT_SET_NO":999,"REV_AT_EPOCH":409,"BSTAR":-0.028874,"MEAN_MOTION_DOT":-0.01963494,"MEAN_MOTION_DDOT":0},{"OBJECT_NAME":"STARLINK-36116","OBJECT_ID":"2025-286Z","EPOCH":"2025-12-25T20:00:01.999008","MEAN_MOTION":15.58343725,"ECCENTRICITY":0.0001381,"INCLINATION":53.159,"RA_OF_ASC_NODE":345.1273,"ARG_OF_PERICENTER":84.9018,"MEAN_ANOMALY":71.7857,"EPHEMERIS_TYPE":0,"CLASSIFICATION_TYPE":"U","NORAD_CAT_ID":66948,"ELEMENT_SET_NO":999,"REV_AT_EPOCH":409,"BSTAR":-0.02891,"MEAN_MOTION_DOT":-0.01965735,"MEAN_MOTION_DDOT":0},{"OBJECT_NAME":"STARLINK-36096","OBJECT_ID":"2025-286AA","EPOCH":"2025-12-25T20:00:01.999008","MEAN_MOTION":15.58353706,"ECCENTRICITY":0.0001527,"INCLINATION":53.159,"RA_OF_ASC_NODE":345.1201,"ARG_OF_PERICENTER":85.7374,"MEAN_ANOMALY":74.7829,"EPHEMERIS_TYPE":0,"CLASSIFICATION_TYPE":"U","NORAD_CAT_ID":66949,"ELEMENT_SET_NO":999,"REV_AT_EPOCH":409,"BSTAR":-0.029199,"MEAN_MOTION_DOT":-0.01983759,"MEAN_MOTION_DDOT":0},{"OBJECT_NAME":"STARLINK-36111","OBJECT_ID":"2025-286AB","EPOCH":"2025-12-25T20:00:01.999008","MEAN_MOTION":15.58345414,"ECCENTRICITY":0.0001407,"INCLINATION":53.1591,"RA_OF_ASC_NODE":345.1111,"ARG_OF_PERICENTER":89.6353,"MEAN_ANOMALY":74.7184,"EPHEMERIS_TYPE":0,"CLASSIFICATION_TYPE":"U","NORAD_CAT_ID":66950,"ELEMENT_SET_NO":999,"REV_AT_EPOCH":409,"BSTAR":-0.028937,"MEAN_MOTION_DOT":-0.01967477,"MEAN_MOTION_DDOT":0},{"OBJECT_NAME":"STARLINK-35999","OBJECT_ID":"2025-286AC","EPOCH":"2025-12-25T20:00:01.999008","MEAN_MOTION":15.58342404,"ECCENTRICITY":0.0001363,"INCLINATION":53.159,"RA_OF_ASC_NODE":345.1073,"ARG_OF_PERICENTER":89.6505,"MEAN_ANOMALY":76.6229,"EPHEMERIS_TYPE":0,"CLASSIFICATION_TYPE":"U","NORAD_CAT_ID":66951,"ELEMENT_SET_NO":999,"REV_AT_EPOCH":409,"BSTAR":-0.028895,"MEAN_MOTION_DOT":-0.01964769,"MEAN_MOTION_DDOT":0},{"OBJECT_NAME":"STARLINK-36122","OBJECT_ID":"2025-286AD","EPOCH":"2025-12-25T20:00:01.999008","MEAN_MOTION":15.58346363,"ECCENTRICITY":0.0001475,"INCLINATION":53.1592,"RA_OF_ASC_NODE":345.1154,"ARG_OF_PERICENTER":85.7351,"MEAN_ANOMALY":76.7024,"EPHEMERIS_TYPE":0,"CLASSIFICATION_TYPE":"U","NORAD_CAT_ID":66952,"ELEMENT_SET_NO":999,"REV_AT_EPOCH":409,"BSTAR":-0.028984,"MEAN_MOTION_DOT":-0.01970403,"MEAN_MOTION_DDOT":0},{"OBJECT_NAME":"STARLINK-35887","OBJECT_ID":"2025-288A","EPOCH":"2025-12-25T20:00:01.999008","MEAN_MOTION":15.63051782,"ECCENTRICITY":0.0001643,"INCLINATION":43.0003,"RA_OF_ASC_NODE":87.4076,"ARG_OF_PERICENTER":282.0697,"MEAN_ANOMALY":56.9655,"EPHEMERIS_TYPE":0,"CLASSIFICATION_TYPE":"U","NORAD_CAT_ID":66959,"ELEMENT_SET_NO":999,"REV_AT_EPOCH":393,"BSTAR":-0.024397,"MEAN_MOTION_DOT":-0.02004716,"MEAN_MOTION_DDOT":0},{"OBJECT_NAME":"STARLINK-35879","OBJECT_ID":"2025-288B","EPOCH":"2025-12-25T20:00:01.999008","MEAN_MOTION":15.6305932,"ECCENTRICITY":0.0001661,"INCLINATION":43.0001,"RA_OF_ASC_NODE":87.4025,"ARG_OF_PERICENTER":279.7411,"MEAN_ANOMALY":61.2079,"EPHEMERIS_TYPE":0,"CLASSIFICATION_TYPE":"U","NORAD_CAT_ID":66960,"ELEMENT_SET_NO":999,"REV_AT_EPOCH":393,"BSTAR":-0.024539,"MEAN_MOTION_DOT":-0.02015447,"MEAN_MOTION_DDOT":0},{"OBJECT_NAME":"STARLINK-35761","OBJECT_ID":"2025-288C","EPOCH":"2025-12-25T20:00:01.999008","MEAN_MOTION":15.63050855,"ECCENTRICITY":0.0001554,"INCLINATION":43.0001,"RA_OF_ASC_NODE":87.3982,"ARG_OF_PERICENTER":279.4814,"MEAN_ANOMALY":63.3884,"EPHEMERIS_TYPE":0,"CLASSIFICATION_TYPE":"U","NORAD_CAT_ID":66961,"ELEMENT_SET_NO":999,"REV_AT_EPOCH":393,"BSTAR":-0.024376,"MEAN_MOTION_DOT":-0.02003071,"MEAN_MOTION_DDOT":0},{"OBJECT_NAME":"STARLINK-35874","OBJECT_ID":"2025-288D","EPOCH":"2025-12-25T20:00:01.999008","MEAN_MOTION":15.63058674,"ECCENTRICITY":0.0001667,"INCLINATION":43.0001,"RA_OF_ASC_NODE":87.3927,"ARG_OF_PERICENTER":280.0182,"MEAN_ANOMALY":64.7648,"EPHEMERIS_TYPE":0,"CLASSIFICATION_TYPE":"U","NORAD_CAT_ID":66962,"ELEMENT_SET_NO":999,"REV_AT_EPOCH":393,"BSTAR":-0.024515,"MEAN_MOTION_DOT":-0.02013708,"MEAN_MOTION_DDOT":0},{"OBJECT_NAME":"STARLINK-36133","OBJECT_ID":"2025-288E","EPOCH":"2025-12-25T20:00:01.999008","MEAN_MOTION":15.63058261,"ECCENTRICITY":0.0001653,"INCLINATION":43.0001,"RA_OF_ASC_NODE":87.3881,"ARG_OF_PERICENTER":279.755,"MEAN_ANOMALY":66.9454,"EPHEMERIS_TYPE":0,"CLASSIFICATION_TYPE":"U","NORAD_CAT_ID":66963,"ELEMENT_SET_NO":999,"REV_AT_EPOCH":393,"BSTAR":-0.024511,"MEAN_MOTION_DOT":-0.02013385,"MEAN_MOTION_DDOT":0},{"OBJECT_NAME":"STARLINK-36104","OBJECT_ID":"2025-288F","EPOCH":"2025-12-25T20:00:01.999008","MEAN_MOTION":15.63062312,"ECCENTRICITY":0.0001688,"INCLINATION":43.0001,"RA_OF_ASC_NODE":87.3829,"ARG_OF_PERICENTER":282.6901,"MEAN_ANOMALY":65.9263,"EPHEMERIS_TYPE":0,"CLASSIFICATION_TYPE":"U","NORAD_CAT_ID":66964,"ELEMENT_SET_NO":999,"REV_AT_EPOCH":393,"BSTAR":-0.024601,"MEAN_MOTION_DOT":-0.02020138,"MEAN_MOTION_DDOT":0},{"OBJECT_NAME":"STARLINK-36067","OBJECT_ID":"2025-288G","EPOCH":"2025-12-25T20:00:01.999008","MEAN_MOTION":15.63049255,"ECCENTRICITY":0.0001591,"INCLINATION":43,"RA_OF_ASC_NODE":87.379,"ARG_OF_PERICENTER":279.7393,"MEAN_ANOMALY":70.8001,"EPHEMERIS_TYPE":0,"CLASSIFICATION_TYPE":"U","NORAD_CAT_ID":66965,"ELEMENT_SET_NO":999,"REV_AT_EPOCH":393,"BSTAR":-0.024353,"MEAN_MOTION_DOT":-0.02001303,"MEAN_MOTION_DDOT":0}]
